LEMUR-2-LLOYD           
1 60577U 24149DP  26068.46001441  .00012007  00000+0  80143-3 0  9995
2 60577  97.6780 149.6779 0005186 125.6096 234.5616 15.07168338 85367
STARLINK-35373          
1 65792U 25218B   26068.57830016  .00005380  00000+0  37681-3 0  9992
2 65792  97.6024 292.8543 0001465  87.2686 272.8709 15.05649987 24954
